[{"OBJECT_NAME":"ONEWEB-0583","OBJECT_ID":"2022-166J","EPOCH":"2026-02-08T01:55:43.675968","MEAN_MOTION":13.2182755,"ECCENTRICITY":0.00014644,"INCLINATION":87.9182,"RA_OF_ASC_NODE":269.755,"ARG_OF_PERICENTER":81.1093,"MEAN_ANOMALY":279.0207,"EPHEMERIS_TYPE":0,"CLASSIFICATION_TYPE":"U","NORAD_CAT_ID":54650,"ELEMENT_SET_NO":999,"REV_AT_EPOCH":15447,"BSTAR":-0.00010802737,"MEAN_MOTION_DOT":-3.2e-7,"MEAN_MOTION_DDOT":0},{"OBJECT_NAME":"ONEWEB-0584","OBJECT_ID":"2022-166K","EPOCH":"2026-02-08T04:13:10.460064","MEAN_MOTION":13.21824436,"ECCENTRICITY":0.00017869,"INCLINATION":87.9187,"RA_OF_ASC_NODE":269.723,"ARG_OF_PERICENTER":72.5898,"MEAN_ANOMALY":287.5431,"EPHEMERIS_TYPE":0,"CLASSIFICATION_TYPE":"U","NORAD_CAT_ID":54651,"ELEMENT_SET_NO":999,"REV_AT_EPOCH":15447,"BSTAR":0.00010566032,"MEAN_MOTION_DOT":5.7e-7,"MEAN_MOTION_DDOT":0},{"OBJECT_NAME":"ONEWEB-0585","OBJECT_ID":"2022-166L","EPOCH":"2026-02-08T02:59:43.700640","MEAN_MOTION":13.21825795,"ECCENTRICITY":0.00015811,"INCLINATION":87.9188,"RA_OF_ASC_NODE":269.7179,"ARG_OF_PERICENTER":88.3986,"MEAN_ANOMALY":271.7329,"EPHEMERIS_TYPE":0,"CLASSIFICATION_TYPE":"U","NORAD_CAT_ID":54652,"ELEMENT_SET_NO":999,"REV_AT_EPOCH":15447,"BSTAR":8.2666632e-5,"MEAN_MOTION_DOT":4.7e-7,"MEAN_MOTION_DDOT":0},{"OBJECT_NAME":"ONEWEB-0586","OBJECT_ID":"2022-166M","EPOCH":"2026-02-08T01:29:41.855136","MEAN_MOTION":13.21816532,"ECCENTRICITY":0.00018492,"INCLINATION":87.916,"RA_OF_ASC_NODE":269.7616,"ARG_OF_PERICENTER":97.8428,"MEAN_ANOMALY":262.2916,"EPHEMERIS_TYPE":0,"CLASSIFICATION_TYPE":"U","NORAD_CAT_ID":54653,"ELEMENT_SET_NO":999,"REV_AT_EPOCH":15446,"BSTAR":-0.0018901229,"MEAN_MOTION_DOT":-7.67e-6,"MEAN_MOTION_DDOT":0},{"OBJECT_NAME":"ONEWEB-0587","OBJECT_ID":"2022-166N","EPOCH":"2026-02-08T01:43:54.660288","MEAN_MOTION":13.21824514,"ECCENTRICITY":0.00015166,"INCLINATION":87.9197,"RA_OF_ASC_NODE":269.7149,"ARG_OF_PERICENTER":99.2837,"MEAN_ANOMALY":260.8468,"EPHEMERIS_TYPE":0,"CLASSIFICATION_TYPE":"U","NORAD_CAT_ID":54654,"ELEMENT_SET_NO":999,"REV_AT_EPOCH":15462,"BSTAR":0.00021744586,"MEAN_MOTION_DOT":1.03e-6,"MEAN_MOTION_DDOT":0},{"OBJECT_NAME":"ONEWEB-0589","OBJECT_ID":"2022-166P","EPOCH":"2026-02-08T01:24:56.113056","MEAN_MOTION":13.21824801,"ECCENTRICITY":0.00020579,"INCLINATION":87.9183,"RA_OF_ASC_NODE":269.7454,"ARG_OF_PERICENTER":58.4929,"MEAN_ANOMALY":301.6406,"EPHEMERIS_TYPE":0,"CLASSIFICATION_TYPE":"U","NORAD_CAT_ID":54655,"ELEMENT_SET_NO":999,"REV_AT_EPOCH":15448,"BSTAR":2.6356082e-5,"MEAN_MOTION_DOT":2.4e-7,"MEAN_MOTION_DDOT":0},{"OBJECT_NAME":"ONEWEB-0590","OBJECT_ID":"2022-166Q","EPOCH":"2026-02-08T02:00:16.896960","MEAN_MOTION":13.21824247,"ECCENTRICITY":0.00020113,"INCLINATION":87.9188,"RA_OF_ASC_NODE":269.7192,"ARG_OF_PERICENTER":87.2402,"MEAN_ANOMALY":272.8963,"EPHEMERIS_TYPE":0,"CLASSIFICATION_TYPE":"U","NORAD_CAT_ID":54656,"ELEMENT_SET_NO":999,"REV_AT_EPOCH":15447,"BSTAR":9.3256719e-5,"MEAN_MOTION_DOT":5.2e-7,"MEAN_MOTION_DDOT":0},{"OBJECT_NAME":"ONEWEB-0591","OBJECT_ID":"2022-166R","EPOCH":"2026-02-08T04:06:04.940064","MEAN_MOTION":13.21825592,"ECCENTRICITY":0.00016988,"INCLINATION":87.9184,"RA_OF_ASC_NODE":269.7254,"ARG_OF_PERICENTER":78.9343,"MEAN_ANOMALY":281.1982,"EPHEMERIS_TYPE":0,"CLASSIFICATION_TYPE":"U","NORAD_CAT_ID":54657,"ELEMENT_SET_NO":999,"REV_AT_EPOCH":15451,"BSTAR":-3.9233302e-5,"MEAN_MOTION_DOT":-3.0e-8,"MEAN_MOTION_DDOT":0},{"OBJECT_NAME":"ONEWEB-0592","OBJECT_ID":"2022-166S","EPOCH":"2026-02-08T04:10:49.956384","MEAN_MOTION":13.21825822,"ECCENTRICITY":0.00016128,"INCLINATION":87.9195,"RA_OF_ASC_NODE":269.6921,"ARG_OF_PERICENTER":84.003,"MEAN_ANOMALY":276.1288,"EPHEMERIS_TYPE":0,"CLASSIFICATION_TYPE":"U","NORAD_CAT_ID":54658,"ELEMENT_SET_NO":999,"REV_AT_EPOCH":15439,"BSTAR":-3.8584657e-5,"MEAN_MOTION_DOT":-3.0e-8,"MEAN_MOTION_DDOT":0},{"OBJECT_NAME":"ONEWEB-0593","OBJECT_ID":"2022-166T","EPOCH":"2026-02-08T04:43:59.163456","MEAN_MOTION":13.21824591,"ECCENTRICITY":0.00014878,"INCLINATION":87.9189,"RA_OF_ASC_NODE":269.7091,"ARG_OF_PERICENTER":79.2365,"MEAN_ANOMALY":280.8937,"EPHEMERIS_TYPE":0,"CLASSIFICATION_TYPE":"U","NORAD_CAT_ID":54659,"ELEMENT_SET_NO":999,"REV_AT_EPOCH":15450,"BSTAR":0.00021001911,"MEAN_MOTION_DOT":1.0e-6,"MEAN_MOTION_DDOT":0},{"OBJECT_NAME":"ONEWEB-0594","OBJECT_ID":"2022-166U","EPOCH":"2026-02-08T01:34:25.680864","MEAN_MOTION":13.21825767,"ECCENTRICITY":0.00014602,"INCLINATION":87.9184,"RA_OF_ASC_NODE":269.7532,"ARG_OF_PERICENTER":86.2843,"MEAN_ANOMALY":273.8458,"EPHEMERIS_TYPE":0,"CLASSIFICATION_TYPE":"U","NORAD_CAT_ID":54660,"ELEMENT_SET_NO":999,"REV_AT_EPOCH":15450,"BSTAR":0.00025114242,"MEAN_MOTION_DOT":1.17e-6,"MEAN_MOTION_DDOT":0},{"OBJECT_NAME":"ONEWEB-0595","OBJECT_ID":"2022-166V","EPOCH":"2026-02-08T04:39:14.950656","MEAN_MOTION":13.21824887,"ECCENTRICITY":0.00016479,"INCLINATION":87.9187,"RA_OF_ASC_NODE":269.6998,"ARG_OF_PERICENTER":90.8648,"MEAN_ANOMALY":269.2675,"EPHEMERIS_TYPE":0,"CLASSIFICATION_TYPE":"U","NORAD_CAT_ID":54661,"ELEMENT_SET_NO":999,"REV_AT_EPOCH":15449,"BSTAR":0.00012796029,"MEAN_MOTION_DOT":6.6e-7,"MEAN_MOTION_DDOT":0},{"OBJECT_NAME":"ONEWEB-0596","OBJECT_ID":"2022-166W","EPOCH":"2026-02-08T02:12:20.126304","MEAN_MOTION":13.21825188,"ECCENTRICITY":0.00016002,"INCLINATION":87.9188,"RA_OF_ASC_NODE":269.738,"ARG_OF_PERICENTER":85.0832,"MEAN_ANOMALY":275.0484,"EPHEMERIS_TYPE":0,"CLASSIFICATION_TYPE":"U","NORAD_CAT_ID":54662,"ELEMENT_SET_NO":999,"REV_AT_EPOCH":15448,"BSTAR":-0.0001049716,"MEAN_MOTION_DOT":-3.0e-7,"MEAN_MOTION_DDOT":0},{"OBJECT_NAME":"ONEWEB-0597","OBJECT_ID":"2022-166X","EPOCH":"2026-02-08T01:46:15.399840","MEAN_MOTION":13.21823939,"ECCENTRICITY":0.0001575,"INCLINATION":87.9184,"RA_OF_ASC_NODE":269.7464,"ARG_OF_PERICENTER":78.168,"MEAN_ANOMALY":281.963,"EPHEMERIS_TYPE":0,"CLASSIFICATION_TYPE":"U","NORAD_CAT_ID":54663,"ELEMENT_SET_NO":999,"REV_AT_EPOCH":15448,"BSTAR":0.00020216178,"MEAN_MOTION_DOT":9.7e-7,"MEAN_MOTION_DDOT":0},{"OBJECT_NAME":"ONEWEB-0600","OBJECT_ID":"2022-166Y","EPOCH":"2026-02-08T01:20:11.250528","MEAN_MOTION":13.218276,"ECCENTRICITY":0.00014673,"INCLINATION":87.9189,"RA_OF_ASC_NODE":269.741,"ARG_OF_PERICENTER":76.7222,"MEAN_ANOMALY":283.4076,"EPHEMERIS_TYPE":0,"CLASSIFICATION_TYPE":"U","NORAD_CAT_ID":54664,"ELEMENT_SET_NO":999,"REV_AT_EPOCH":15445,"BSTAR":4.6811705e-5,"MEAN_MOTION_DOT":3.2e-7,"MEAN_MOTION_DDOT":0},{"OBJECT_NAME":"ONEWEB-0601","OBJECT_ID":"2022-166Z","EPOCH":"2026-02-08T02:57:20.668032","MEAN_MOTION":13.21824399,"ECCENTRICITY":0.00017335,"INCLINATION":87.9188,"RA_OF_ASC_NODE":269.7456,"ARG_OF_PERICENTER":71.2495,"MEAN_ANOMALY":288.8827,"EPHEMERIS_TYPE":0,"CLASSIFICATION_TYPE":"U","NORAD_CAT_ID":54665,"ELEMENT_SET_NO":999,"REV_AT_EPOCH":15465,"BSTAR":-0.00034011685,"MEAN_MOTION_DOT":-1.27e-6,"MEAN_MOTION_DDOT":0},{"OBJECT_NAME":"ONEWEB-0602","OBJECT_ID":"2022-166AA","EPOCH":"2026-02-08T02:06:24.350976","MEAN_MOTION":13.21825198,"ECCENTRICITY":0.00012882,"INCLINATION":87.9188,"RA_OF_ASC_NODE":269.758,"ARG_OF_PERICENTER":80.5576,"MEAN_ANOMALY":279.5704,"EPHEMERIS_TYPE":0,"CLASSIFICATION_TYPE":"U","NORAD_CAT_ID":54666,"ELEMENT_SET_NO":999,"REV_AT_EPOCH":15449,"BSTAR":-6.8207781e-5,"MEAN_MOTION_DOT":-1.5e-7,"MEAN_MOTION_DDOT":0}]
