ONEWEB-0583             
1 54650U 22166J   26039.08036662 -.00000032  00000+0 -10803-3 0  9999
2 54650  87.9182 269.7550 0001464  81.1093 279.0207 13.21827550154470
ONEWEB-0584             
1 54651U 22166K   26039.17581551  .00000057  00000+0  10566-3 0  9993
2 54651  87.9187 269.7230 0001786  72.5898 287.5431 13.21824436154478
ONEWEB-0585             
1 54652U 22166L   26039.12481135  .00000047  00000+0  82667-4 0  9997
2 54652  87.9188 269.7179 0001581  88.3986 271.7329 13.21825795154478
ONEWEB-0586             
1 54653U 22166M   26039.06228999 -.00000767  00000+0 -18901-2 0  9997
2 54653  87.9160 269.7616 0001849  97.8428 262.2916 13.21816532154463
ONEWEB-0587             
1 54654U 22166N   26039.07216042  .00000103  00000+0  21745-3 0  9998
2 54654  87.9197 269.7149 0001516  99.2837 260.8468 13.21824514154629
ONEWEB-0589             
1 54655U 22166P   26039.05898279  .00000024  00000+0  26356-4 0  9991
2 54655  87.9183 269.7454 0002057  58.4929 301.6406 13.21824801154483
ONEWEB-0590             
1 54656U 22166Q   26039.08352890  .00000052  00000+0  93257-4 0  9994
2 54656  87.9188 269.7192 0002011  87.2402 272.8963 13.21824247154474
ONEWEB-0591             
1 54657U 22166R   26039.17089051 -.00000003  00000+0 -39233-4 0  9993
2 54657  87.9184 269.7254 0001698  78.9343 281.1982 13.21825592154514
ONEWEB-0592             
1 54658U 22166S   26039.17418931 -.00000003  00000+0 -38585-4 0  9996
2 54658  87.9195 269.6921 0001612  84.0030 276.1288 13.21825822154399
ONEWEB-0593             
1 54659U 22166T   26039.19721254  .00000100  00000+0  21002-3 0  9995
2 54659  87.9189 269.7091 0001487  79.2365 280.8937 13.21824591154507
ONEWEB-0594             
1 54660U 22166U   26039.06557501  .00000117  00000+0  25114-3 0  9991
2 54660  87.9184 269.7532 0001460  86.2843 273.8458 13.21825767154500
ONEWEB-0595             
1 54661U 22166V   26039.19392304  .00000066  00000+0  12796-3 0  9999
2 54661  87.9187 269.6998 0001647  90.8648 269.2675 13.21824887154490
ONEWEB-0596             
1 54662U 22166W   26039.09189961 -.00000030  00000+0 -10497-3 0  9991
2 54662  87.9188 269.7380 0001600  85.0832 275.0484 13.21825188154485
ONEWEB-0597             
1 54663U 22166X   26039.07378935  .00000097  00000+0  20216-3 0  9992
2 54663  87.9184 269.7464 0001575  78.1680 281.9630 13.21823939154481
ONEWEB-0600             
1 54664U 22166Y   26039.05568577  .00000032  00000+0  46812-4 0  9994
2 54664  87.9189 269.7410 0001467  76.7222 283.4076 13.21827600154451
ONEWEB-0601             
1 54665U 22166Z   26039.12315588 -.00000127  00000+0 -34012-3 0  9990
2 54665  87.9188 269.7456 0001733  71.2495 288.8827 13.21824399154656
ONEWEB-0602             
1 54666U 22166AA  26039.08778184 -.00000015  00000+0 -68208-4 0  9992
2 54666  87.9188 269.7580 0001288  80.5576 279.5704 13.21825198154494
